{
    "links": {
        "self": "http://www.neowsapp.com/rest/v1/neo/3841633?api_key=iIulBulltgU6a56xZRHN4H3l9WmuAYTsLGpBGhQ2"
    },
    "id": "3841633",
    "neo_reference_id": "3841633",
    "name": "(2019 HX3)",
    "designation": "2019 HX3",
    "nasa_jpl_url": "http://ssd.jpl.nasa.gov/sbdb.cgi?sstr=3841633",
    "absolute_magnitude_h": 23.4,
    "estimated_diameter": {
        "kilometers": {
            "estimated_diameter_min": 0.0555334912,
            "estimated_diameter_max": 0.1241766613
        },
        "meters": {
            "estimated_diameter_min": 55.5334911581,
            "estimated_diameter_max": 124.1766612574
        },
        "miles": {
            "estimated_diameter_min": 0.0345069009,
            "estimated_diameter_max": 0.0771597762
        },
        "feet": {
            "estimated_diameter_min": 182.1964991311,
            "estimated_diameter_max": 407.4037573197
        }
    },
    "is_potentially_hazardous_asteroid": false,
    "close_approach_data": [
        {
            "close_approach_date": "2010-05-30",
            "close_approach_date_full": "2010-May-30 10:29",
            "epoch_date_close_approach": 1275215340000,
            "relative_velocity": {
                "kilometers_per_second": "9.1477645941",
                "kilometers_per_hour": "32931.9525386359",
                "miles_per_hour": "20462.6346204652"
            },
            "miss_distance": {
                "astronomical": "0.1472673211",
                "lunar": "57.2869879079",
                "kilometers": "22030877.557166057",
                "miles": "13689352.5303113066"
            },
            "orbiting_body": "Earth"
        },
        {
            "close_approach_date": "2019-05-18",
            "close_approach_date_full": "2019-May-18 17:37",
            "epoch_date_close_approach": 1558201020000,
            "relative_velocity": {
                "kilometers_per_second": "9.1761613473",
                "kilometers_per_hour": "33034.1808501458",
                "miles_per_hour": "20526.155317692"
            },
            "miss_distance": {
                "astronomical": "0.0639070316",
                "lunar": "24.8598352924",
                "kilometers": "9560355.805382692",
                "miles": "5940529.6314454696"
            },
            "orbiting_body": "Earth"
        },
        {
            "close_approach_date": "2028-05-08",
            "close_approach_date_full": "2028-May-08 19:39",
            "epoch_date_close_approach": 1841427540000,
            "relative_velocity": {
                "kilometers_per_second": "10.7988885855",
                "kilometers_per_hour": "38875.9989078104",
                "miles_per_hour": "24156.0338769114"
            },
            "miss_distance": {
                "astronomical": "0.1329071361",
                "lunar": "51.7008759429",
                "kilometers": "19882624.468360107",
                "miles": "12354489.9593271966"
            },
            "orbiting_body": "Earth"
        },
        {
            "close_approach_date": "2037-04-29",
            "close_approach_date_full": "2037-Apr-29 11:10",
            "epoch_date_close_approach": 2124616200000,
            "relative_velocity": {
                "kilometers_per_second": "14.0506089052",
                "kilometers_per_hour": "50582.1920587729",
                "miles_per_hour": "31429.8070600748"
            },
            "miss_distance": {
                "astronomical": "0.2778172957",
                "lunar": "108.0709280273",
                "kilometers": "41560875.685880159",
                "miles": "25824730.6425338342"
            },
            "orbiting_body": "Earth"
        }
    ],
    "orbital_data": {
        "orbit_id": "13",
        "orbit_determination_date": "2020-09-11 07:43:02",
        "first_observation_date": "2019-04-27",
        "last_observation_date": "2019-06-02",
        "data_arc_in_days": 36,
        "observations_used": 75,
        "orbit_uncertainty": "7",
        "minimum_orbit_intersection": ".0637227",
        "jupiter_tisserand_invariant": "4.064",
        "epoch_osculation": "2459000.5",
        "eccentricity": ".3787758361994871",
        "semi_major_axis": "1.714529097653291",
        "inclination": "14.32539067289471",
        "ascending_node_longitude": "52.69775203897897",
        "orbital_period": "820.003520441426",
        "perihelion_distance": "1.065106905001314",
        "perihelion_argument": "196.9496492847867",
        "aphelion_distance": "2.363951290305269",
        "perihelion_time": "2458634.292332656836",
        "mean_anomaly": "160.773407622164",
        "mean_motion": ".4390225054231524",
        "equinox": "J2000",
        "orbit_class": {
            "orbit_class_type": "AMO",
            "orbit_class_description": "Near-Earth asteroid orbits similar to that of 1221 Amor",
            "orbit_class_range": "1.017 AU < q (perihelion) < 1.3 AU"
        }
    },
    "is_sentry_object": false
}